{
  "type": "FeatureCollection",
  "features": [
    {
      "type": "Feature",
      "properties": {
        "norad_id": 34540,
        "name": "IRIDIUM 33 DEB",
        "group": "iridium-33-debris",
        "lat": -9.408001668950657,
        "lon": -56.19096221670218,
        "alt_km": 657.8263230451776,
        "timestamp": "2025-12-19T16:54:44.647460+00:00",
        "meta_object_name": "IRIDIUM 33 DEB",
        "meta_object_id": "1997-051JH",
        "meta_epoch": "2025-12-18T08:57:29.352960",
        "meta_mean_motion": 14.75435184,
        "meta_eccentricity": 0.00173002,
        "meta_inclination": 86.3103,
        "meta_ra_of_asc_node": 305.0304,
        "meta_arg_of_pericenter": 139.8381,
        "meta_mean_anomaly": 343.587,
        "meta_ephemeris_type": 0,
        "meta_classification_type": "U",
        "meta_norad_cat_id": 34540,
        "meta_element_set_no": 999,
        "meta_rev_at_epoch": 89104,
        "meta_bstar": 0.0013410572,
        "meta_mean_motion_dot": 9.16e-05,
        "meta_mean_motion_ddot": 0,
        "tle_line1": "1 34540U 97051JH  25352.37325640  .00009160  00000+0  13411-2 0  9992",
        "tle_line2": "2 34540  86.3103 305.0304 0017300 139.8381 343.5870 14.75435184891042"
      },
      "geometry": {
        "type": "Point",
        "coordinates": [
          -56.19096221670218,
          -9.408001668950657
        ]
      }
    },
    {
      "type": "Feature",
      "properties": {
        "norad_id": 34648,
        "name": "IRIDIUM 33 DEB",
        "group": "iridium-33-debris",
        "lat": -17.715945636234096,
        "lon": -82.02194451203854,
        "alt_km": 801.9050914232221,
        "timestamp": "2025-12-19T16:54:44.647470+00:00",
        "meta_object_name": "IRIDIUM 33 DEB",
        "meta_object_id": "1997-051JZ",
        "meta_epoch": "2025-12-18T13:46:37.352352",
        "meta_mean_motion": 14.1166623,
        "meta_eccentricity": 0.01808845,
        "meta_inclination": 86.3904,
        "meta_ra_of_asc_node": 279.59,
        "meta_arg_of_pericenter": 280.6676,
        "meta_mean_anomaly": 77.4184,
        "meta_ephemeris_type": 0,
        "meta_classification_type": "U",
        "meta_norad_cat_id": 34648,
        "meta_element_set_no": 999,
        "meta_rev_at_epoch": 85043,
        "meta_bstar": 0.0055375481,
        "meta_mean_motion_dot": 0.00011772,
        "meta_mean_motion_ddot": 0,
        "tle_line1": "1 34648U 97051JZ  25352.57404343  .00011772  00000+0  55375-2 0  9998",
        "tle_line2": "2 34648  86.3904 279.5900 0180884 280.6676  77.4184 14.11666230850434"
      },
      "geometry": {
        "type": "Point",
        "coordinates": [
          -82.02194451203854,
          -17.715945636234096
        ]
      }
    },
    {
      "type": "Feature",
      "properties": {
        "norad_id": 34651,
        "name": "IRIDIUM 33 DEB",
        "group": "iridium-33-debris",
        "lat": 34.402672911199524,
        "lon": 140.16605589988544,
        "alt_km": 888.8063366396764,
        "timestamp": "2025-12-19T16:54:44.647480+00:00",
        "meta_object_name": "IRIDIUM 33 DEB",
        "meta_object_id": "1997-051KC",
        "meta_epoch": "2025-12-19T03:16:23.206080",
        "meta_mean_motion": 14.25915494,
        "meta_eccentricity": 0.0142225,
        "meta_inclination": 86.2827,
        "meta_ra_of_asc_node": 137.8563,
        "meta_arg_of_pericenter": 183.725,
        "meta_mean_anomaly": 176.2898,
        "meta_ephemeris_type": 0,
        "meta_classification_type": "U",
        "meta_norad_cat_id": 34651,
        "meta_element_set_no": 999,
        "meta_rev_at_epoch": 85987,
        "meta_bstar": 0.0023945655,
        "meta_mean_motion_dot": 6.363e-05,
        "meta_mean_motion_ddot": 0,
        "tle_line1": "1 34651U 97051KC  25353.13637970  .00006363  00000+0  23946-2 0  9998",
        "tle_line2": "2 34651  86.2827 137.8563 0142225 183.7250 176.2898 14.25915494859871"
      },
      "geometry": {
        "type": "Point",
        "coordinates": [
          140.16605589988544,
          34.402672911199524
        ]
      }
    },
    {
      "type": "Feature",
      "properties": {
        "norad_id": 34652,
        "name": "IRIDIUM 33 DEB",
        "group": "iridium-33-debris",
        "lat": -85.078134149032,
        "lon": -71.2715972984833,
        "alt_km": 675.7379284674016,
        "timestamp": "2025-12-19T16:54:44.647491+00:00",
        "meta_object_name": "IRIDIUM 33 DEB",
        "meta_object_id": "1997-051KD",
        "meta_epoch": "2025-12-18T17:14:29.252832",
        "meta_mean_motion": 14.62111337,
        "meta_eccentricity": 0.0025564,
        "meta_inclination": 86.3309,
        "meta_ra_of_asc_node": 337.3391,
        "meta_arg_of_pericenter": 276.3765,
        "meta_mean_anomaly": 208.8285,
        "meta_ephemeris_type": 0,
        "meta_classification_type": "U",
        "meta_norad_cat_id": 34652,
        "meta_element_set_no": 999,
        "meta_rev_at_epoch": 88571,
        "meta_bstar": 0.00069226917,
        "meta_mean_motion_dot": 3.516e-05,
        "meta_mean_motion_ddot": 0,
        "tle_line1": "1 34652U 97051KD  25352.71839413  .00003516  00000+0  69227-3 0  9998",
        "tle_line2": "2 34652  86.3309 337.3391 0025564 276.3765 208.8285 14.62111337885719"
      },
      "geometry": {
        "type": "Point",
        "coordinates": [
          -71.2715972984833,
          -85.078134149032
        ]
      }
    },
    {
      "type": "Feature",
      "properties": {
        "norad_id": 34690,
        "name": "IRIDIUM 33 DEB",
        "group": "iridium-33-debris",
        "lat": -38.787177158792204,
        "lon": 31.04656022183106,
        "alt_km": 710.4848220527938,
        "timestamp": "2025-12-19T16:54:44.647502+00:00",
        "meta_object_name": "IRIDIUM 33 DEB",
        "meta_object_id": "1997-051KM",
        "meta_epoch": "2025-12-19T02:30:15.635232",
        "meta_mean_motion": 14.55118004,
        "meta_eccentricity": 0.00100928,
        "meta_inclination": 86.3778,
        "meta_ra_of_asc_node": 34.2255,
        "meta_arg_of_pericenter": 8.472,
        "meta_mean_anomaly": 50.0408,
        "meta_ephemeris_type": 0,
        "meta_classification_type": "U",
        "meta_norad_cat_id": 34690,
        "meta_element_set_no": 999,
        "meta_rev_at_epoch": 88187,
        "meta_bstar": 0.00032814485,
        "meta_mean_motion_dot": 1.438e-05,
        "meta_mean_motion_ddot": 0,
        "tle_line1": "1 34690U 97051KM  25353.10434763  .00001438  00000+0  32814-3 0  9996",
        "tle_line2": "2 34690  86.3778  34.2255 0010092   8.4720  50.0408 14.55118004881875"
      },
      "geometry": {
        "type": "Point",
        "coordinates": [
          31.04656022183106,
          -38.787177158792204
        ]
      }
    },
    {
      "type": "Feature",
      "properties": {
        "norad_id": 34693,
        "name": "IRIDIUM 33 DEB",
        "group": "iridium-33-debris",
        "lat": 53.89881819983894,
        "lon": -54.55609069760802,
        "alt_km": 464.1914607279123,
        "timestamp": "2025-12-19T16:54:44.647512+00:00",
        "meta_object_name": "IRIDIUM 33 DEB",
        "meta_object_id": "1997-051KQ",
        "meta_epoch": "2025-12-18T20:30:35.333568",
        "meta_mean_motion": 15.29367567,
        "meta_eccentricity": 0.0012164,
        "meta_inclination": 86.305,
        "meta_ra_of_asc_node": 300.783,
        "meta_arg_of_pericenter": 41.8212,
        "meta_mean_anomaly": 14.7661,
        "meta_ephemeris_type": 0,
        "meta_classification_type": "U",
        "meta_norad_cat_id": 34693,
        "meta_element_set_no": 999,
        "meta_rev_at_epoch": 89008,
        "meta_bstar": 0.0035831985,
        "meta_mean_motion_dot": 0.00103466,
        "meta_mean_motion_ddot": 0,
        "tle_line1": "1 34693U 97051KQ  25352.85457562  .00103466  00000+0  35832-2 0  9998",
        "tle_line2": "2 34693  86.3050 300.7830 0012164  41.8212  14.7661 15.29367567890083"
      },
      "geometry": {
        "type": "Point",
        "coordinates": [
          -54.55609069760802,
          53.89881819983894
        ]
      }
    },
    {
      "type": "Feature",
      "properties": {
        "norad_id": 34696,
        "name": "IRIDIUM 33 DEB",
        "group": "iridium-33-debris",
        "lat": -6.040529888662569,
        "lon": 23.87643205745113,
        "alt_km": 724.5762894079835,
        "timestamp": "2025-12-19T16:54:44.647522+00:00",
        "meta_object_name": "IRIDIUM 33 DEB",
        "meta_object_id": "1997-051KT",
        "meta_epoch": "2025-12-19T02:26:16.937952",
        "meta_mean_motion": 14.65392793,
        "meta_eccentricity": 0.00738562,
        "meta_inclination": 86.184,
        "meta_ra_of_asc_node": 24.5618,
        "meta_arg_of_pericenter": 146.0479,
        "meta_mean_anomaly": 268.8933,
        "meta_ephemeris_type": 0,
        "meta_classification_type": "U",
        "meta_norad_cat_id": 34696,
        "meta_element_set_no": 999,
        "meta_rev_at_epoch": 86766,
        "meta_bstar": 0.0030854988,
        "meta_mean_motion_dot": 0.00017409,
        "meta_mean_motion_ddot": 0,
        "tle_line1": "1 34696U 97051KT  25353.10158493  .00017409  00000+0  30855-2 0  9992",
        "tle_line2": "2 34696  86.1840  24.5618 0073856 146.0479 268.8933 14.65392793867664"
      },
      "geometry": {
        "type": "Point",
        "coordinates": [
          23.87643205745113,
          -6.040529888662569
        ]
      }
    }
  ]
}